NORAD_CAT_ID,OBJECT_NAME,OBJECT_TYPE,EPOCH,MEAN_MOTION,ECCENTRICITY,INCLINATION,RA_OF_ASC_NODE,ARG_OF_PERICENTER,MEAN_ANOMALY,BSTAR,MEAN_MOTION_DOT,MEAN_MOTION_DDOT,TLE_LINE0,TLE_LINE1,TLE_LINE2,SEMIMAJOR_AXIS,PERIOD,APOGEE,PERIGEE,DECAYED
49756.0,STARLINK-3207,PAYLOAD,2022-09-19 12:20:53,15.08846241,0.0001488,53.2156,67.687,61.6151,298.4991,0.00012284,1.668e-05,0.0,0 STARLINK-3207,1 49756U 21115AJ  22262.51450629  .00001668  00000-0  12284-3 0  9998,2 49756  53.2156  67.6870 0001488  61.6151 298.4991 15.08846241 45482,6917.861,95.437,540.756,538.697,0.0
49756.0,STARLINK-3207,PAYLOAD,2022-09-19 20:17:48,15.08851858,0.0001472,53.2156,66.2002,61.4897,298.6243,0.00019209,2.771e-05,0.0,0 STARLINK-3207,1 49756U 21115AJ  22262.84570263  .00002771  00000-0  19209-3 0  9991,2 49756  53.2156  66.2002 0001472  61.4897 298.6243 15.08851858 44427,6917.844,95.437,540.727,538.691,0.0
49756.0,STARLINK-3207,PAYLOAD,2022-09-20 12:11:40,15.08844872,0.0001462,53.2159,63.2263,58.8045,301.309,3.5906e-05,2.84e-06,0.0,0 STARLINK-3207,1 49756U 21115AJ  22263.50810505  .00000284  00000-0  35906-4 0  9991,2 49756  53.2159  63.2263 0001462  58.8045 301.3090 15.08844872 44521,6917.865,95.437,540.742,538.719,0.0
49756.0,STARLINK-3207,PAYLOAD,2022-09-20 18:33:12,15.08845695,0.0001447,53.2156,62.0369,57.2101,302.9031,9.1948e-05,1.176e-05,0.0,0 STARLINK-3207,1 49756U 21115AJ  22263.77306341  .00001176  00000-0  91948-4 0  9997,2 49756  53.2156  62.0369 0001447  57.2101 302.9031 15.08845695 45674,6917.863,95.437,540.729,538.727,0.0
49756.0,STARLINK-3207,PAYLOAD,2022-09-20 21:43:58,15.08848001,0.0001445,53.2156,61.4422,57.1716,302.9415,0.000143,1.989e-05,0.0,0 STARLINK-3207,1 49756U 21115AJ  22263.90554229  .00001989  00000-0  14300-3 0  9990,2 49756  53.2156  61.4422 0001445  57.1716 302.9415 15.08848001 44585,6917.856,95.437,540.721,538.721,0.0
49756.0,STARLINK-3207,PAYLOAD,2022-09-21 12:02:27,15.08839229,0.0001437,53.2169,58.7658,57.9523,302.1609,3.1902e-05,2.2e-06,0.0,0 STARLINK-3207,1 49756U 21115AJ  22264.50170659  .00000220  00000-0  31902-4 0  9993,2 49756  53.2169  58.7658 0001437  57.9523 302.1609 15.08839229 45786,6917.8830000000025,95.438,540.742,538.754,0.0
49756.0,STARLINK-3207,PAYLOAD,2022-09-21 21:34:45,15.08844133,0.0001463,53.217,56.9816,57.6376,302.4758,3.039e-05,1.96e-06,0.0,0 STARLINK-3207,1 49756U 21115AJ  22264.89914203  .00000196  00000-0  30390-4 0  9998,2 49756  53.2170  56.9816 0001463  57.6376 302.4758 15.08844133 44738,6917.868,95.437,540.745,538.721,0.0
49756.0,STARLINK-3207,PAYLOAD,2022-09-22 00:45:32,15.08845981,0.000146,53.217,56.3869,56.9839,303.1293,2.7364e-05,1.48e-06,0.0,0 STARLINK-3207,1 49756U 21115AJ  22265.03162039  .00000148  00000-0  27364-4 0  9991,2 49756  53.2170  56.3869 0001460  56.9839 303.1293 15.08845981 45862,6917.861999999999,95.437,540.737,538.717,0.0
49756.0,STARLINK-3207,PAYLOAD,2022-09-22 13:28:37,15.08831735,0.0001473,53.2171,54.0081,57.5845,302.5289,-7.290600000000002e-07,-3e-06,0.0,0 STARLINK-3207,1 49756U 21115AJ  22265.56155059 -.00000300  00000-0 -72906-6 0  9999,2 49756  53.2171  54.0081 0001473  57.5845 302.5289 15.08831735 45941,6917.906,95.438,540.79,538.752,0.0
49756.0,STARLINK-3207,PAYLOAD,2022-09-22 21:25:33,15.0883783,0.0001501999999999,53.2171,52.5213,58.0203,302.0935,1.397e-05,-6.6e-07,0.0,0 STARLINK-3207,1 49756U 21115AJ  22265.89274718 -.00000066  00000-0  13970-4 0  9991,2 49756  53.2171  52.5213 0001502  58.0203 302.0935 15.08837830 45998,6917.887,95.438,540.7909999999998,538.7130000000002,0.0
49756.0,STARLINK-3207,PAYLOAD,2022-09-23 13:19:25,15.08831937,0.0001571,53.2172,49.5475,58.5101,301.6045,3.3474e-05,2.45e-06,0.0,0 STARLINK-3207,1 49756U 21115AJ  22266.55515146  .00000245  00000-0  33474-4 0  9997,2 49756  53.2172  49.5475 0001571  58.5101 301.6045 15.08831937 44980,6917.905,95.438,540.857,538.683,0.0
49756.0,STARLINK-3207,PAYLOAD,2022-09-23 19:40:57,15.08829974,0.0001587,53.2173,48.3583,57.3925,302.7221,5.5225e-06,-2e-06,0.0,0 STARLINK-3207,1 49756U 21115AJ  22266.82011546 -.00000200  00000-0  55225-5 0  9993,2 49756  53.2173  48.3583 0001587  57.3925 302.7221 15.08829974 46131,6917.911,95.438,540.874,538.678,0.0
49756.0,STARLINK-3207,PAYLOAD,2022-09-24 13:10:12,15.08833289,0.0001573,53.2178,45.088,59.8623,300.2524,-2.628800000000001e-05,-7.06e-06,0.0,0 STARLINK-3207,1 49756U 21115AJ  22267.54875746 -.00000706  00000-0 -26288-4 0  9991,2 49756  53.2178  45.0880 0001573  59.8623 300.2524 15.08833289 45139,6917.901,95.438,540.854,538.678,0.0
49756.0,STARLINK-3207,PAYLOAD,2022-09-24 16:20:59,15.08828971,0.0001556,53.2172,44.4926,57.6277,302.4866,-5.4907e-05,-1.161e-05,0.0,0 STARLINK-3207,1 49756U 21115AJ  22267.68124156 -.00001161  00000-0 -54907-4 0  9993,2 49756  53.2172  44.4926 0001556  57.6277 302.4866 15.08828971 45156,6917.9140000000025,95.438,540.856,538.703,0.0
49756.0,STARLINK-3207,PAYLOAD,2022-09-25 01:53:18,15.08828198,0.0001525,53.2173,42.7096,58.4445,301.6696,7.4053e-06,-1.7e-06,0.0,0 STARLINK-3207,1 49756U 21115AJ  22268.07868468 -.00000170  00000-0  74053-5 0  9991,2 49756  53.2173  42.7096 0001525  58.4445 301.6696 15.08828198 46321,6917.916,95.438,540.836,538.726,0.0
49756.0,STARLINK-3207,PAYLOAD,2022-09-25 11:25:37,15.08829521,0.000158,53.2176,40.9246,56.6727,303.4417,9.0975e-05,1.16e-05,0.0,0 STARLINK-3207,1 49756U 21115AJ  22268.47612345  .00001160  00000-0  90975-4 0  9995,2 49756  53.2176  40.9246 0001580  56.6727 303.4417 15.08829521 45270,6917.9119999999975,95.438,540.87,538.684,0.0
49756.0,STARLINK-3207,PAYLOAD,2022-09-25 17:47:09,15.08837261,0.0001621,53.2175,39.7353,57.8326,302.2823,0.00015815,2.23e-05,0.0,0 STARLINK-3207,1 49756U 21115AJ  22268.74107871  .00002230  00000-0  15815-3 0  9996,2 49756  53.2175  39.7353 0001621  57.8326 302.2823 15.08837261 45311,6917.889,95.438,540.875,538.632,0.0
49756.0,STARLINK-3207,PAYLOAD,2022-09-26 11:16:23,15.08838669,0.000177,53.219,36.4672,69.7305,290.3878,9.947e-05,1.295e-05,0.0,0 STARLINK-3207,1 49756U 21115AJ  22269.46972147  .00001295  00000-0  99470-4 0  9992,2 49756  53.2190  36.4672 0001770  69.7305 290.3878 15.08838669 45422,6917.884,95.438,540.974,538.525,0.0
49756.0,STARLINK-3207,PAYLOAD,2022-09-26 17:37:56,15.08840739,0.0001656,53.2179,35.2752,87.2425,272.8757,4.619e-05,4.47e-06,0.0,0 STARLINK-3207,1 49756U 21115AJ  22269.73468158  .00000447  00000-0  46190-4 0  9993,2 49756  53.2179  35.2752 0001656  87.2425 272.8757 15.08840739 45462,6917.878000000002,95.438,540.889,538.5980000000002,0.0
49756.0,STARLINK-3207,PAYLOAD,2022-09-27 01:34:52,15.08840605,0.0001816,53.2178,33.7884,57.9672,302.1496,0.00017487,2.496e-05,0.0,0 STARLINK-3207,1 49756U 21115AJ  22270.06588035  .00002496  00000-0  17487-3 0  9990,2 49756  53.2178  33.7884 0001816  57.9672 302.1496 15.08840605 46624,6917.879,95.438,541.0,538.487,0.0
49756.0,STARLINK-3207,PAYLOAD,2022-09-27 11:07:10,15.08843241,0.0001893,53.2186,32.0054,65.9594,294.1596,8.0016e-05,9.86e-06,0.0,0 STARLINK-3207,1 49756U 21115AJ  22270.46332141  .00000986  00000-0  80016-4 0  9990,2 49756  53.2186  32.0054 0001893  65.9594 294.1596 15.08843241 45574,6917.87,95.437,541.045,538.4259999999998,0.0
49756.0,STARLINK-3207,PAYLOAD,2022-09-27 17:28:43,15.08847615,0.0001821999999999,53.2188,30.816,61.9046,298.213,9.0851e-05,1.158e-05,0.0,0 STARLINK-3207,1 49756U 21115AJ  22270.72827771  .00001158  00000-0  90851-4 0  9997,2 49756  53.2188  30.8160 0001822  61.9046 298.2130 15.08847615 45613,6917.857,95.437,540.9830000000002,538.462,0.0
49756.0,STARLINK-3207,PAYLOAD,2022-09-28 14:08:44,15.0883314,0.0001714,53.2186,26.9491,63.7679,296.3489,-8.396799999999999e-06,-4.22e-06,0.0,0 STARLINK-3207,1 49756U 21115AJ  22271.58940632 -.00000422  00000-0 -83968-5 0  9991,2 49756  53.2186  26.9491 0001714  63.7679 296.3489 15.08833140 46857,6917.901,95.438,540.952,538.581,0.0
49756.0,STARLINK-3207,PAYLOAD,2022-09-28 17:19:30,15.08836107,0.0001732,53.2211,26.3545,82.2322,277.8867,-2.6532e-05,-7.1e-06,0.0,0 STARLINK-3207,1 49756U 21115AJ  22271.72188464 -.00000710  00000-0 -26532-4 0  9997,2 49756  53.2211  26.3545 0001732  82.2322 277.8867 15.08836107 45760,6917.892,95.438,540.955,538.559,0.0
49756.0,STARLINK-3207,PAYLOAD,2022-09-29 12:24:07,15.08844745,0.0001702,53.2151,22.7838,45.5284,314.5847,6.783e-05,7.92e-06,0.0,0 STARLINK-3207,1 49756U 21115AJ  22272.51675550  .00000792  00000-0  67830-4 0  9996,2 49756  53.2151  22.7838 0001702  45.5284 314.5847 15.08844745 46994,6917.866,95.437,540.908,538.553,0.0
49756.0,STARLINK-3207,PAYLOAD,2022-09-29 13:59:31,15.08839471,0.0001621999999999,53.2184,22.4902,45.0829,315.0294,3.6808e-05,2.98e-06,0.0,0 STARLINK-3207,1 49756U 21115AJ  22272.58299941  .00000298  00000-0  36808-4 0  9991,2 49756  53.2184  22.4902 0001622  45.0829 315.0294 15.08839471 45890,6917.882,95.438,540.869,538.625,0.0
49756.0,STARLINK-3207,PAYLOAD,2022-09-29 18:45:40,15.0884531,0.0001574,53.2181,21.5967,45.9328,314.1794,7.1167e-06,-1.75e-06,0.0,0 STARLINK-3207,1 49756U 21115AJ  22272.78171588 -.00000175  00000-0  71167-5 0  9992,2 49756  53.2181  21.5967 0001574  45.9328 314.1794 15.08845310 45925,6917.864000000001,95.437,540.818,538.64,0.0
49756.0,STARLINK-3207,PAYLOAD,2022-09-30 13:50:17,15.08841116,0.0001661,53.2175,18.0281,51.5312,308.5829,0.00010665,1.41e-05,0.0,0 STARLINK-3207,1 49756U 21115AJ  22273.57659657  .00001410  00000-0  10665-3 0  9994,2 49756  53.2175  18.0281 0001661  51.5312 308.5829 15.08841116 46041,6917.877,95.437,540.891,538.5930000000002,0.0
49756.0,STARLINK-3207,PAYLOAD,2022-09-30 17:01:03,15.0884594,0.0001649,53.2178,17.4328,50.4095,309.7042,0.00016595,2.354e-05,0.0,0 STARLINK-3207,1 49756U 21115AJ  22273.70907172  .00002354  00000-0  16595-3 0  9993,2 49756  53.2178  17.4328 0001649  50.4095 309.7042 15.08845940 46062,6917.861999999999,95.437,540.868,538.586,0.0
